{"type": "FeatureCollection", "features": [ {"type": "Feature", "properties": {"norad_id": 32289, "name": "YAOGAN-3", "group": "resource", "lat": 22.71327935342299, "lon": -168.08373211267576, "alt_km": 598.0129345371142, "timestamp": "2025-12-07T22:37:42.739410+00:00", "meta": {"OBJECT_NAME": "YAOGAN-3", "OBJECT_ID": "2007-055A", "EPOCH": "2025-12-07T05:48:26.099136", "MEAN_MOTION": 14.89819825, "ECCENTRICITY": 0.00014737, "INCLINATION": 97.8368, "RA_OF_ASC_NODE": 7.9167, "ARG_OF_PERICENTER": 77.3903, "MEAN_ANOMALY": 282.748, "EPHEMERIS_TYPE": 0, "CLASSIFICATION_TYPE": "U", "NORAD_CAT_ID": 32289, "ELEMENT_SET_NO": 999, "REV_AT_EPOCH": 97727, "BSTAR": 0.00043451335, "MEAN_MOTION_DOT": 4.117e-05, "MEAN_MOTION_DDOT": 0}, "tle": {"line1": "1 32289U 07055A   25341.24196874  .00004117  00000+0  43451-3 0  9999", "line2": "2 32289  97.8368   7.9167 0001473  77.3903 282.7480 14.89819825977279"}}, "geometry": {"type": "Point", "coordinates": [-168.08373211267576, 22.71327935342299]}}, {"type": "Feature", "properties": {"norad_id": 32376, "name": "COSMO-SKYMED 2", "group": "resource", "lat": -28.232789684286807, "lon": -20.92684555545532, "alt_km": 628.9799623359731, "timestamp": "2025-12-07T22:37:42.739427+00:00", "meta": {"OBJECT_NAME": "COSMO-SKYMED 2", "OBJECT_ID": "2007-059A", "EPOCH": "2025-12-07T05:29:19.328352", "MEAN_MOTION": 14.82155671, "ECCENTRICITY": 0.00015248, "INCLINATION": 97.8813, "RA_OF_ASC_NODE": 162.6354, "ARG_OF_PERICENTER": 86.8527, "MEAN_ANOMALY": 273.286, "EPHEMERIS_TYPE": 0, "CLASSIFICATION_TYPE": "U", "NORAD_CAT_ID": 32376, "ELEMENT_SET_NO": 999, "REV_AT_EPOCH": 97356, "BSTAR": 0.00014537483, "MEAN_MOTION_DOT": 1.105e-05, "MEAN_MOTION_DDOT": 0}, "tle": {"line1": "1 32376U 07059A   25341.22869593  .00001105  00000+0  14537-3 0  9990", "line2": "2 32376  97.8813 162.6354 0001524  86.8527 273.2860 14.82155671973562"}}, "geometry": {"type": "Point", "coordinates": [-20.92684555545532, -28.232789684286807]}}, {"type": "Feature", "properties": {"norad_id": 32382, "name": "RADARSAT-2", "group": "resource", "lat": -23.004236872214108, "lon": -9.722184563032986, "alt_km": 797.4676625032007, "timestamp": "2025-12-07T22:37:42.739438+00:00", "meta": {"OBJECT_NAME": "RADARSAT-2", "OBJECT_ID": "2007-061A", "EPOCH": "2025-12-07T05:56:39.074208", "MEAN_MOTION": 14.29985228, "ECCENTRICITY": 0.00010798, "INCLINATION": 98.5799, "RA_OF_ASC_NODE": 345.9177, "ARG_OF_PERICENTER": 91.7023, "MEAN_ANOMALY": 268.4283, "EPHEMERIS_TYPE": 0, "CLASSIFICATION_TYPE": "U", "NORAD_CAT_ID": 32382, "ELEMENT_SET_NO": 999, "REV_AT_EPOCH": 93852, "BSTAR": 7.7284713e-05, "MEAN_MOTION_DOT": 1.56e-06, "MEAN_MOTION_DDOT": 0}, "tle": {"line1": "1 32382U 07061A   25341.24767447  .00000156  00000+0  77285-4 0  9992", "line2": "2 32382  98.5799 345.9177 0001079  91.7023 268.4283 14.29985228938522"}}, "geometry": {"type": "Point", "coordinates": [-9.722184563032986, -23.004236872214108]}}, {"type": "Feature", "properties": {"norad_id": 32783, "name": "CARTOSAT-2A", "group": "resource", "lat": 43.31033719227744, "lon": 24.497640803893972, "alt_km": 621.3186128747911, "timestamp": "2025-12-07T22:37:42.739449+00:00", "meta": {"OBJECT_NAME": "CARTOSAT-2A", "OBJECT_ID": "2008-021A", "EPOCH": "2025-12-07T06:11:37.127904", "MEAN_MOTION": 14.78921988, "ECCENTRICITY": 0.00122241, "INCLINATION": 97.7938, "RA_OF_ASC_NODE": 31.2527, "ARG_OF_PERICENTER": 21.8989, "MEAN_ANOMALY": 338.2743, "EPHEMERIS_TYPE": 0, "CLASSIFICATION_TYPE": "U", "NORAD_CAT_ID": 32783, "ELEMENT_SET_NO": 999, "REV_AT_EPOCH": 95043, "BSTAR": 0.00023592457, "MEAN_MOTION_DOT": 1.691e-05, "MEAN_MOTION_DDOT": 0}, "tle": {"line1": "1 32783U 08021A   25341.25806861  .00001691  00000+0  23592-3 0  9995", "line2": "2 32783  97.7938  31.2527 0012224  21.8989 338.2743 14.78921988950434"}}, "geometry": {"type": "Point", "coordinates": [24.497640803893972, 43.31033719227744]}}, {"type": "Feature", "properties": {"norad_id": 33320, "name": "HUANJING 1A (HJ-1A)", "group": "resource", "lat": -12.648893561057362, "lon": 148.71214616486074, "alt_km": 634.6842444570193, "timestamp": "2025-12-07T22:37:42.739459+00:00", "meta": {"OBJECT_NAME": "HUANJING 1A (HJ-1A)", "OBJECT_ID": "2008-041A", "EPOCH": "2025-12-07T07:11:37.778784", "MEAN_MOTION": 14.83368551, "ECCENTRICITY": 0.00204787, "INCLINATION": 97.6537, "RA_OF_ASC_NODE": 329.8253, "ARG_OF_PERICENTER": 51.5636, "MEAN_ANOMALY": 308.7412, "EPHEMERIS_TYPE": 0, "CLASSIFICATION_TYPE": "U", "NORAD_CAT_ID": 33320, "ELEMENT_SET_NO": 999, "REV_AT_EPOCH": 92995, "BSTAR": 0.00034793522, "MEAN_MOTION_DOT": 2.812e-05, "MEAN_MOTION_DDOT": 0}, "tle": {"line1": "1 33320U 08041A   25341.29974281  .00002812  00000+0  34794-3 0  9993", "line2": "2 33320  97.6537 329.8253 0020478  51.5636 308.7412 14.83368551929952"}}, "geometry": {"type": "Point", "coordinates": [148.71214616486074, -12.648893561057362]}}, {"type": "Feature", "properties": {"norad_id": 33321, "name": "HUANJING 1B (HJ-1B)", "group": "resource", "lat": 62.21667281603378, "lon": -40.607873614038866, "alt_km": 590.7066557406224, "timestamp": "2025-12-07T22:37:42.739470+00:00", "meta": {"OBJECT_NAME": "HUANJING 1B (HJ-1B)", "OBJECT_ID": "2008-041B", "EPOCH": "2025-12-07T06:09:00.096768", "MEAN_MOTION": 14.82799882, "ECCENTRICITY": 0.00382502, "INCLINATION": 97.6395, "RA_OF_ASC_NODE": 333.4949, "ARG_OF_PERICENTER": 93.1614, "MEAN_ANOMALY": 267.3977, "EPHEMERIS_TYPE": 0, "CLASSIFICATION_TYPE": "U", "NORAD_CAT_ID": 33321, "ELEMENT_SET_NO": 999, "REV_AT_EPOCH": 92996, "BSTAR": 0.00028937528, "MEAN_MOTION_DOT": 2.319e-05, "MEAN_MOTION_DDOT": 0}, "tle": {"line1": "1 33321U 08041B   25341.25625112  .00002319  00000+0  28938-3 0  9991", "line2": "2 33321  97.6395 333.4949 0038250  93.1614 267.3977 14.82799882929964"}}, "geometry": {"type": "Point", "coordinates": [-40.607873614038866, 62.21667281603378]}}, {"type": "Feature", "properties": {"norad_id": 33331, "name": "GEOEYE 1", "group": "resource", "lat": -0.16049545948375044, "lon": 53.306250010803765, "alt_km": 679.7559961717398, "timestamp": "2025-12-07T22:37:42.739480+00:00", "meta": {"OBJECT_NAME": "GEOEYE 1", "OBJECT_ID": "2008-042A", "EPOCH": "2025-12-07T06:14:06.094464", "MEAN_MOTION": 14.64801321, "ECCENTRICITY": 0.0002835, "INCLINATION": 98.1258, "RA_OF_ASC_NODE": 52.6088, "ARG_OF_PERICENTER": 300.9862, "MEAN_ANOMALY": 59.1062, "EPHEMERIS_TYPE": 0, "CLASSIFICATION_TYPE": "U", "NORAD_CAT_ID": 33331, "ELEMENT_SET_NO": 999, "REV_AT_EPOCH": 92205, "BSTAR": 0.00023467076, "MEAN_MOTION_DOT": 1.204e-05, "MEAN_MOTION_DDOT": 0}, "tle": {"line1": "1 33331U 08042A   25341.25979276  .00001204  00000+0  23467-3 0  9990", "line2": "2 33331  98.1258  52.6088 0002835 300.9862  59.1062 14.64801321922054"}}, "geometry": {"type": "Point", "coordinates": [53.306250010803765, -0.16049545948375044]}}, {"type": "Feature", "properties": {"norad_id": 33396, "name": "THEOS", "group": "resource", "lat": -81.08458886116917, "lon": 145.74938726710272, "alt_km": 833.1505686873707, "timestamp": "2025-12-07T22:37:42.739491+00:00", "meta": {"OBJECT_NAME": "THEOS", "OBJECT_ID": "2008-049A", "EPOCH": "2025-12-07T06:09:11.856672", "MEAN_MOTION": 14.20094771, "ECCENTRICITY": 0.00011107, "INCLINATION": 98.5876, "RA_OF_ASC_NODE": 39.5076, "ARG_OF_PERICENTER": 100.4502, "MEAN_ANOMALY": 259.68, "EPHEMERIS_TYPE": 0, "CLASSIFICATION_TYPE": "U", "NORAD_CAT_ID": 33396, "ELEMENT_SET_NO": 999, "REV_AT_EPOCH": 89072, "BSTAR": 9.826436e-05, "MEAN_MOTION_DOT": 1.67e-06, "MEAN_MOTION_DDOT": 0}, "tle": {"line1": "1 33396U 08049A   25341.25638723  .00000167  00000+0  98264-4 0  9992", "line2": "2 33396  98.5876  39.5076 0001110 100.4502 259.6800 14.20094771890725"}}, "geometry": {"type": "Point", "coordinates": [145.74938726710272, -81.08458886116917]}}, {"type": "Feature", "properties": {"norad_id": 33412, "name": "COSMO-SKYMED 3", "group": "resource", "lat": -34.02381183413207, "lon": -162.40509770845878, "alt_km": 564.6502332738528, "timestamp": "2025-12-07T22:37:42.739502+00:00", "meta": {"OBJECT_NAME": "COSMO-SKYMED 3", "OBJECT_ID": "2008-054A", "EPOCH": "2025-12-07T06:49:39.214560", "MEAN_MOTION": 15.05273536, "ECCENTRICITY": 0.00157376, "INCLINATION": 97.8455, "RA_OF_ASC_NODE": 191.5845, "ARG_OF_PERICENTER": 192.4817, "MEAN_ANOMALY": 167.6022, "EPHEMERIS_TYPE": 0, "CLASSIFICATION_TYPE": "U", "NORAD_CAT_ID": 33412, "ELEMENT_SET_NO": 999, "REV_AT_EPOCH": 92805, "BSTAR": 0.00054027983, "MEAN_MOTION_DOT": 7.682e-05, "MEAN_MOTION_DDOT": 0}, "tle": {"line1": "1 33412U 08054A   25341.28448165  .00007682  00000+0  54028-3 0  9997", "line2": "2 33412  97.8455 191.5845 0015737 192.4817 167.6022 15.05273536928056"}}, "geometry": {"type": "Point", "coordinates": [-162.40509770845878, -34.02381183413207]}}, {"type": "Feature", "properties": {"norad_id": 33446, "name": "YAOGAN-4", "group": "resource", "lat": -22.4966052475671, "lon": -84.60691554749984, "alt_km": 616.5347668195818, "timestamp": "2025-12-07T22:37:42.739512+00:00", "meta": {"OBJECT_NAME": "YAOGAN-4", "OBJECT_ID": "2008-061A", "EPOCH": "2025-12-07T06:32:00.675456", "MEAN_MOTION": 14.82655941, "ECCENTRICITY": 0.00140606, "INCLINATION": 97.9176, "RA_OF_ASC_NODE": 271.4251, "ARG_OF_PERICENTER": 341.8774, "MEAN_ANOMALY": 18.1937, "EPHEMERIS_TYPE": 0, "CLASSIFICATION_TYPE": "U", "NORAD_CAT_ID": 33446, "ELEMENT_SET_NO": 999, "REV_AT_EPOCH": 91722, "BSTAR": 0.0003352026, "MEAN_MOTION_DOT": 2.652e-05, "MEAN_MOTION_DDOT": 0}, "tle": {"line1": "1 33446U 08061A   25341.27223004  .00002652  00000+0  33520-3 0  9990", "line2": "2 33446  97.9176 271.4251 0014060 341.8774  18.1937 14.82655941917223"}}, "geometry": {"type": "Point", "coordinates": [-84.60691554749984, -22.4966052475671]}}]}